[{"OBJECT_NAME":"STARLINK-4592","OBJECT_ID":"2022-104AY","EPOCH":"2026-03-09T17:40:16.092768","MEAN_MOTION":15.08838954,"ECCENTRICITY":0.00013777,"INCLINATION":53.2173,"RA_OF_ASC_NODE":223.8196,"ARG_OF_PERICENTER":92.5072,"MEAN_ANOMALY":267.6078,"EPHEMERIS_TYPE":0,"CLASSIFICATION_TYPE":"U","NORAD_CAT_ID":53634,"ELEMENT_SET_NO":999,"REV_AT_EPOCH":19623,"BSTAR":3.4621393e-5,"MEAN_MOTION_DOT":2.63e-6,"MEAN_MOTION_DDOT":0},{"OBJECT_NAME":"SEDNA-2","OBJECT_ID":"2025-009DQ","EPOCH":"2026-03-09T19:10:28.282944","MEAN_MOTION":15.10492622,"ECCENTRICITY":0.0010309,"INCLINATION":97.4615,"RA_OF_ASC_NODE":144.8075,"ARG_OF_PERICENTER":53.026,"MEAN_ANOMALY":307.1912,"EPHEMERIS_TYPE":0,"CLASSIFICATION_TYPE":"U","NORAD_CAT_ID":63153,"ELEMENT_SET_NO":999,"REV_AT_EPOCH":6311,"BSTAR":0.00049393403,"MEAN_MOTION_DOT":8.085e-5,"MEAN_MOTION_DDOT":0}]
