STARLINK-4592           
1 53634U 22104AY  26068.73629736  .00000263  00000+0  34621-4 0  9995
2 53634  53.2173 223.8196 0001378  92.5072 267.6078 15.08838954196237
SEDNA-2                 
1 63153U 25009DQ  26068.79893845  .00008085  00000+0  49393-3 0  9990
2 63153  97.4615 144.8075 0010309  53.0260 307.1912 15.10492622 63116
